%
(diagonal stress benchmark: air_moves; rotated basis u=(1,1)/2^.5 v=(1,-1)/2^.5)
(regenerate: python3 tools/gen_bench_diag.py --mode air_moves --n 13 --U 420 --vmax 200 --cut-z 500 --safe-z 600 --cut-half 40 --hops 2 --out <this file>)
(voxel units; Z500=cut Z600=safe/air)
G0 Z600.000
G0 Z600.000
G0 X155.563 Y438.406
G0 X-438.406 Y-155.563
G0 X-466.690 Y-183.848
G0 Z500.000
G1 Z500.000 F500.000
G1 X-410.122 Y-127.279 F500.000
G0 Z600.000
G0 X179.134 Y414.836
G0 X-414.836 Y-179.134
G0 X150.849 Y386.552
G0 Z500.000
G1 Z500.000 F500.000
G1 X207.418 Y443.120 F500.000
G0 Z600.000
G0 X202.704 Y391.266
G0 X-391.266 Y-202.704
G0 X-419.550 Y-230.988
G0 Z500.000
G1 Z500.000 F500.000
G1 X-362.981 Y-174.420 F500.000
G0 Z600.000
G0 X226.274 Y367.696
G0 X-367.696 Y-226.274
G0 X197.990 Y339.411
G0 Z500.000
G1 Z500.000 F500.000
G1 X254.558 Y395.980 F500.000
G0 Z600.000
G0 X249.844 Y344.125
G0 X-344.125 Y-249.844
G0 X-372.410 Y-278.129
G0 Z500.000
G1 Z500.000 F500.000
G1 X-315.841 Y-221.560 F500.000
G0 Z600.000
G0 X273.415 Y320.555
G0 X-320.555 Y-273.415
G0 X245.130 Y292.271
G0 Z500.000
G1 Z500.000 F500.000
G1 X301.699 Y348.839 F500.000
G0 Z600.000
G0 X296.985 Y296.985
G0 X-296.985 Y-296.985
G0 X-325.269 Y-325.269
G0 Z500.000
G1 Z500.000 F500.000
G1 X-268.701 Y-268.701 F500.000
G0 Z600.000
G0 X320.555 Y273.415
G0 X-273.415 Y-320.555
G0 X292.271 Y245.130
G0 Z500.000
G1 Z500.000 F500.000
G1 X348.839 Y301.699 F500.000
G0 Z600.000
G0 X344.125 Y249.844
G0 X-249.844 Y-344.125
G0 X-278.129 Y-372.410
G0 Z500.000
G1 Z500.000 F500.000
G1 X-221.560 Y-315.841 F500.000
G0 Z600.000
G0 X367.696 Y226.274
G0 X-226.274 Y-367.696
G0 X339.411 Y197.990
G0 Z500.000
G1 Z500.000 F500.000
G1 X395.980 Y254.558 F500.000
G0 Z600.000
G0 X391.266 Y202.704
G0 X-202.704 Y-391.266
G0 X-230.988 Y-419.550
G0 Z500.000
G1 Z500.000 F500.000
G1 X-174.420 Y-362.981 F500.000
G0 Z600.000
G0 X414.836 Y179.134
G0 X-179.134 Y-414.836
G0 X386.552 Y150.849
G0 Z500.000
G1 Z500.000 F500.000
G1 X443.120 Y207.418 F500.000
G0 Z600.000
G0 X438.406 Y155.563
G0 X-155.563 Y-438.406
G0 X-183.848 Y-466.690
G0 Z500.000
G1 Z500.000 F500.000
G1 X-127.279 Y-410.122 F500.000
G0 Z600.000
G0 X0 Y0
%
