%
(diagonal stress benchmark: diag_cut; rotated basis u=(1,1)/2^.5 v=(1,-1)/2^.5)
(regenerate: python3 tools/gen_bench_diag.py --mode diag_cut --n 13 --U 420 --vmax 200 --cut-z 500 --safe-z 1200 --out <this file>)
(voxel units; Z500=cut Z1200=safe/air)
G0 Z1200.000
G0 X-438.406 Y-155.563
G0 Z500.000
G1 Z500.000 F500.000
G1 X-438.406 Y-155.563 F500.000
G1 X155.563 Y438.406 F500.000
G1 X179.134 Y414.836 F500.000
G1 X-414.836 Y-179.134 F500.000
G1 X-391.266 Y-202.704 F500.000
G1 X202.704 Y391.266 F500.000
G1 X226.274 Y367.696 F500.000
G1 X-367.696 Y-226.274 F500.000
G1 X-344.125 Y-249.844 F500.000
G1 X249.844 Y344.125 F500.000
G1 X273.415 Y320.555 F500.000
G1 X-320.555 Y-273.415 F500.000
G1 X-296.985 Y-296.985 F500.000
G1 X296.985 Y296.985 F500.000
G1 X320.555 Y273.415 F500.000
G1 X-273.415 Y-320.555 F500.000
G1 X-249.844 Y-344.125 F500.000
G1 X344.125 Y249.844 F500.000
G1 X367.696 Y226.274 F500.000
G1 X-226.274 Y-367.696 F500.000
G1 X-202.704 Y-391.266 F500.000
G1 X391.266 Y202.704 F500.000
G1 X414.836 Y179.134 F500.000
G1 X-179.134 Y-414.836 F500.000
G1 X-155.563 Y-438.406 F500.000
G1 X438.406 Y155.563 F500.000
G0 Z1200.000
G0 Z1200.000
G0 X0 Y0
%
