%
G0 Z1200.000
G0 X-200.000 Y-100.000
G0 Z500.000
G1 Z500.000 F500.000
G1 X200.000 Y-100.000 F500.000
G1 X200.000 Y-94.000 F500.000
G1 X-200.000 Y-94.000 F500.000
G1 X-200.000 Y-88.000 F500.000
G1 X200.000 Y-88.000 F500.000
G1 X200.000 Y-82.000 F500.000
G1 X-200.000 Y-82.000 F500.000
G1 X-200.000 Y-76.000 F500.000
G1 X200.000 Y-76.000 F500.000
G1 X200.000 Y-70.000 F500.000
G1 X-200.000 Y-70.000 F500.000
G1 X-200.000 Y-64.000 F500.000
G1 X200.000 Y-64.000 F500.000
G1 X200.000 Y-58.000 F500.000
G1 X-200.000 Y-58.000 F500.000
G1 X-200.000 Y-52.000 F500.000
G1 X200.000 Y-52.000 F500.000
G1 X200.000 Y-46.000 F500.000
G1 X-200.000 Y-46.000 F500.000
G1 X-200.000 Y-40.000 F500.000
G1 X200.000 Y-40.000 F500.000
G1 X200.000 Y-34.000 F500.000
G1 X-200.000 Y-34.000 F500.000
G1 X-200.000 Y-28.000 F500.000
G1 X200.000 Y-28.000 F500.000
G1 X200.000 Y-22.000 F500.000
G1 X-200.000 Y-22.000 F500.000
G1 X-200.000 Y-16.000 F500.000
G1 X200.000 Y-16.000 F500.000
G1 X200.000 Y-10.000 F500.000
G1 X-200.000 Y-10.000 F500.000
G1 X-200.000 Y-4.000 F500.000
G1 X200.000 Y-4.000 F500.000
G1 X200.000 Y2.000 F500.000
G1 X-200.000 Y2.000 F500.000
G1 X-200.000 Y8.000 F500.000
G1 X200.000 Y8.000 F500.000
G1 X200.000 Y14.000 F500.000
G1 X-200.000 Y14.000 F500.000
G1 X-200.000 Y20.000 F500.000
G1 X200.000 Y20.000 F500.000
G1 X200.000 Y26.000 F500.000
G1 X-200.000 Y26.000 F500.000
G1 X-200.000 Y32.000 F500.000
G1 X200.000 Y32.000 F500.000
G1 X200.000 Y38.000 F500.000
G1 X-200.000 Y38.000 F500.000
G1 X-200.000 Y44.000 F500.000
G1 X200.000 Y44.000 F500.000
G1 X200.000 Y50.000 F500.000
G1 X-200.000 Y50.000 F500.000
G1 X-200.000 Y56.000 F500.000
G1 X200.000 Y56.000 F500.000
G1 X200.000 Y62.000 F500.000
G1 X-200.000 Y62.000 F500.000
G1 X-200.000 Y68.000 F500.000
G1 X200.000 Y68.000 F500.000
G1 X200.000 Y74.000 F500.000
G1 X-200.000 Y74.000 F500.000
G1 X-200.000 Y80.000 F500.000
G1 X200.000 Y80.000 F500.000
G1 X200.000 Y86.000 F500.000
G1 X-200.000 Y86.000 F500.000
G1 X-200.000 Y92.000 F500.000
G1 X200.000 Y92.000 F500.000
G1 X200.000 Y98.000 F500.000
G1 X-200.000 Y98.000 F500.000
G1 X-200.000 Y104.000 F500.000
G0 Z1200.000
M30
