%
G0 Z1200.000
G0 X-300.000 Y-300.000
G0 Z500.000
G1 Z500.000 F500.000
G1 X300.000 Y-300.000 F500.000
G1 X300.000 Y-280.000 F500.000
G1 X-300.000 Y-280.000 F500.000
G1 X-300.000 Y-260.000 F500.000
G1 X300.000 Y-260.000 F500.000
G1 X300.000 Y-240.000 F500.000
G1 X-300.000 Y-240.000 F500.000
G1 X-300.000 Y-220.000 F500.000
G1 X300.000 Y-220.000 F500.000
G1 X300.000 Y-200.000 F500.000
G1 X-300.000 Y-200.000 F500.000
G1 X-300.000 Y-180.000 F500.000
G1 X300.000 Y-180.000 F500.000
G1 X300.000 Y-160.000 F500.000
G1 X-300.000 Y-160.000 F500.000
G1 X-300.000 Y-140.000 F500.000
G1 X300.000 Y-140.000 F500.000
G1 X300.000 Y-120.000 F500.000
G1 X-300.000 Y-120.000 F500.000
G1 X-300.000 Y-100.000 F500.000
G1 X300.000 Y-100.000 F500.000
G1 X300.000 Y-80.000 F500.000
G1 X-300.000 Y-80.000 F500.000
G1 X-300.000 Y-60.000 F500.000
G1 X300.000 Y-60.000 F500.000
G1 X300.000 Y-40.000 F500.000
G1 X-300.000 Y-40.000 F500.000
G1 X-300.000 Y-20.000 F500.000
G1 X300.000 Y-20.000 F500.000
G1 X300.000 Y0.000 F500.000
G1 X-300.000 Y0.000 F500.000
G1 X-300.000 Y20.000 F500.000
G1 X300.000 Y20.000 F500.000
G1 X300.000 Y40.000 F500.000
G1 X-300.000 Y40.000 F500.000
G1 X-300.000 Y60.000 F500.000
G1 X300.000 Y60.000 F500.000
G1 X300.000 Y80.000 F500.000
G1 X-300.000 Y80.000 F500.000
G1 X-300.000 Y100.000 F500.000
G1 X300.000 Y100.000 F500.000
G1 X300.000 Y120.000 F500.000
G1 X-300.000 Y120.000 F500.000
G1 X-300.000 Y140.000 F500.000
G1 X300.000 Y140.000 F500.000
G1 X300.000 Y160.000 F500.000
G1 X-300.000 Y160.000 F500.000
G1 X-300.000 Y180.000 F500.000
G1 X300.000 Y180.000 F500.000
G1 X300.000 Y200.000 F500.000
G1 X-300.000 Y200.000 F500.000
G1 X-300.000 Y220.000 F500.000
G1 X300.000 Y220.000 F500.000
G1 X300.000 Y240.000 F500.000
G1 X-300.000 Y240.000 F500.000
G1 X-300.000 Y260.000 F500.000
G1 X300.000 Y260.000 F500.000
G1 X300.000 Y280.000 F500.000
G1 X-300.000 Y280.000 F500.000
G1 X-300.000 Y300.000 F500.000
G1 X300.000 Y300.000 F500.000
G0 Z1200.000
M30
