%
G0 Z1200.000
G0 X-430.000 Y-400.000
G0 Z500.000
G1 Z500.000 F500.000
G1 X-370.000 Y-400.000 F500.000
G0 Z1200.000
G0 X370.000 Y400.000
G0 Z500.000
G1 Z500.000 F500.000
G1 X430.000 Y400.000 F500.000
G0 Z1200.000
G0 X-430.000 Y400.000
G0 Z500.000
G1 Z500.000 F500.000
G1 X-370.000 Y400.000 F500.000
G0 Z1200.000
G0 X370.000 Y-400.000
G0 Z500.000
G1 Z500.000 F500.000
G1 X430.000 Y-400.000 F500.000
G0 Z1200.000
G0 X-30.000 Y0.000
G0 Z500.000
G1 Z500.000 F500.000
G1 X30.000 Y0.000 F500.000
G0 Z1200.000
G0 Z1200.000
M30
