%
(Complex 45-degree raster benchmark for swept-carving tube pruning)
(13 long diagonal CUTS + long diagonal AIR repositions between lanes)
(voxel units; Z500 = cut depth, Z1200 = safe; use a small tool e.g. mill_3)
G0 Z1200.000
G0 X-438.406 Y-98.995
G0 Z500.000
G1 Z500.000 F500.000
G1 X98.995 Y438.406 F500.000
G0 Z1200.000
G0 X-410.122 Y-127.279
G0 Z500.000
G1 Z500.000 F500.000
G1 X127.279 Y410.122 F500.000
G0 Z1200.000
G0 X-381.838 Y-155.563
G0 Z500.000
G1 Z500.000 F500.000
G1 X155.563 Y381.838 F500.000
G0 Z1200.000
G0 X-353.553 Y-183.848
G0 Z500.000
G1 Z500.000 F500.000
G1 X183.848 Y353.553 F500.000
G0 Z1200.000
G0 X-325.269 Y-212.132
G0 Z500.000
G1 Z500.000 F500.000
G1 X212.132 Y325.269 F500.000
G0 Z1200.000
G0 X-296.985 Y-240.416
G0 Z500.000
G1 Z500.000 F500.000
G1 X240.416 Y296.985 F500.000
G0 Z1200.000
G0 X-268.701 Y-268.701
G0 Z500.000
G1 Z500.000 F500.000
G1 X268.701 Y268.701 F500.000
G0 Z1200.000
G0 X-240.416 Y-296.985
G0 Z500.000
G1 Z500.000 F500.000
G1 X296.985 Y240.416 F500.000
G0 Z1200.000
G0 X-212.132 Y-325.269
G0 Z500.000
G1 Z500.000 F500.000
G1 X325.269 Y212.132 F500.000
G0 Z1200.000
G0 X-183.848 Y-353.553
G0 Z500.000
G1 Z500.000 F500.000
G1 X353.553 Y183.848 F500.000
G0 Z1200.000
G0 X-155.563 Y-381.838
G0 Z500.000
G1 Z500.000 F500.000
G1 X381.838 Y155.563 F500.000
G0 Z1200.000
G0 X-127.279 Y-410.122
G0 Z500.000
G1 Z500.000 F500.000
G1 X410.122 Y127.279 F500.000
G0 Z1200.000
G0 X-98.995 Y-438.406
G0 Z500.000
G1 Z500.000 F500.000
G1 X438.406 Y98.995 F500.000
G0 Z1200.000
G0 X0.000 Y0.000
M30
