%
(autocam carving program - tool: hemispheric_mill_3, stock 100x100x50mm)
(mm coords; higher Z = higher above stock; Z0 = deepest; Z70.0 = safe)
G0 Z70.000
G0 X0.000 Y0.000
(holes 3x3 region=(-400,-150,150,400) depths=[250, 150, 50])
G0 Z70.000
G0 X-40.000 Y15.000
G1 Z25.000 F400
G0 Z70.000
G0 X-27.500 Y15.000
G1 Z25.000 F400
G0 Z70.000
G0 X-15.000 Y15.000
G1 Z25.000 F400
G0 Z70.000
G0 X-40.000 Y27.500
G1 Z15.000 F400
G0 Z70.000
G0 X-27.500 Y27.500
G1 Z15.000 F400
G0 Z70.000
G0 X-15.000 Y27.500
G1 Z15.000 F400
G0 Z70.000
G0 X-40.000 Y40.000
G1 Z5.000 F400
G0 Z70.000
G0 X-27.500 Y40.000
G1 Z5.000 F400
G0 Z70.000
G0 X-15.000 Y40.000
G1 Z5.000 F400
G0 Z70.000
(raster pocket region=(100,420,-420,-120) Z300 step25)
G0 Z70.000
G0 X10.000 Y-42.000
G1 Z30.000 F400
G1 X42.000 Y-42.000 Z30.000 F400
G1 X42.000 Y-39.500 Z30.000 F400
G1 X10.000 Y-39.500 Z30.000 F400
G1 X10.000 Y-37.000 Z30.000 F400
G1 X42.000 Y-37.000 Z30.000 F400
G1 X42.000 Y-34.500 Z30.000 F400
G1 X10.000 Y-34.500 Z30.000 F400
G1 X10.000 Y-32.000 Z30.000 F400
G1 X42.000 Y-32.000 Z30.000 F400
G1 X42.000 Y-29.500 Z30.000 F400
G1 X10.000 Y-29.500 Z30.000 F400
G1 X10.000 Y-27.000 Z30.000 F400
G1 X42.000 Y-27.000 Z30.000 F400
G1 X42.000 Y-24.500 Z30.000 F400
G1 X10.000 Y-24.500 Z30.000 F400
G1 X10.000 Y-22.000 Z30.000 F400
G1 X42.000 Y-22.000 Z30.000 F400
G1 X42.000 Y-19.500 Z30.000 F400
G1 X10.000 Y-19.500 Z30.000 F400
G1 X10.000 Y-17.000 Z30.000 F400
G1 X42.000 Y-17.000 Z30.000 F400
G1 X42.000 Y-14.500 Z30.000 F400
G1 X10.000 Y-14.500 Z30.000 F400
G1 X10.000 Y-12.000 Z30.000 F400
G1 X42.000 Y-12.000 Z30.000 F400
G0 Z70.000
(spiral center=(300,300) turns=4 rmax=150 Z350)
G0 Z70.000
G0 X30.000 Y30.000
G1 Z35.000 F400
G1 X30.077 Y30.010 Z35.000 F400
G1 X30.151 Y30.040 Z35.000 F400
G1 X30.217 Y30.090 Z35.000 F400
G1 X30.271 Y30.156 Z35.000 F400
G1 X30.310 Y30.238 Z35.000 F400
G1 X30.331 Y30.331 Z35.000 F400
G1 X30.333 Y30.434 Z35.000 F400
G1 X30.312 Y30.541 Z35.000 F400
G1 X30.269 Y30.650 Z35.000 F400
G1 X30.202 Y30.755 Z35.000 F400
G1 X30.112 Y30.852 Z35.000 F400
G1 X30.000 Y30.938 Z35.000 F400
G1 X29.867 Y31.007 Z35.000 F400
G1 X29.717 Y31.056 Z35.000 F400
G1 X29.552 Y31.083 Z35.000 F400
G1 X29.375 Y31.083 Z35.000 F400
G1 X29.191 Y31.054 Z35.000 F400
G1 X29.006 Y30.994 Z35.000 F400
G1 X28.822 Y30.904 Z35.000 F400
G1 X28.647 Y30.781 Z35.000 F400
G1 X28.484 Y30.628 Z35.000 F400
G1 X28.340 Y30.445 Z35.000 F400
G1 X28.218 Y30.235 Z35.000 F400
G1 X28.125 Y30.000 Z35.000 F400
G1 X28.064 Y29.745 Z35.000 F400
G1 X28.038 Y29.474 Z35.000 F400
G1 X28.051 Y29.193 Z35.000 F400
G1 X28.106 Y28.906 Z35.000 F400
G1 X28.203 Y28.621 Z35.000 F400
G1 X28.343 Y28.343 Z35.000 F400
G1 X28.526 Y28.079 Z35.000 F400
G1 X28.750 Y27.835 Z35.000 F400
G1 X29.013 Y27.618 Z35.000 F400
G1 X29.313 Y27.434 Z35.000 F400
G1 X29.643 Y27.289 Z35.000 F400
G1 X30.000 Y27.188 Z35.000 F400
G1 X30.377 Y27.134 Z35.000 F400
G1 X30.768 Y27.132 Z35.000 F400
G1 X31.166 Y27.185 Z35.000 F400
G1 X31.562 Y27.294 Z35.000 F400
G1 X31.950 Y27.459 Z35.000 F400
G1 X32.320 Y27.680 Z35.000 F400
G1 X32.665 Y27.955 Z35.000 F400
G1 X32.977 Y28.281 Z35.000 F400
G1 X33.248 Y28.655 Z35.000 F400
G1 X33.471 Y29.070 Z35.000 F400
G1 X33.640 Y29.521 Z35.000 F400
G1 X33.750 Y30.000 Z35.000 F400
G1 X33.795 Y30.500 Z35.000 F400
G1 X33.773 Y31.011 Z35.000 F400
G1 X33.681 Y31.525 Z35.000 F400
G1 X33.518 Y32.031 Z35.000 F400
G1 X33.285 Y32.521 Z35.000 F400
G1 X32.983 Y32.983 Z35.000 F400
G1 X32.616 Y33.409 Z35.000 F400
G1 X32.188 Y33.789 Z35.000 F400
G1 X31.704 Y34.114 Z35.000 F400
G1 X31.173 Y34.377 Z35.000 F400
G1 X30.602 Y34.570 Z35.000 F400
G1 X30.000 Y34.688 Z35.000 F400
G1 X29.378 Y34.725 Z35.000 F400
G1 X28.746 Y34.679 Z35.000 F400
G1 X28.116 Y34.547 Z35.000 F400
G1 X27.500 Y34.330 Z35.000 F400
G1 X26.909 Y34.029 Z35.000 F400
G1 X26.354 Y33.646 Z35.000 F400
G1 X25.847 Y33.186 Z35.000 F400
G1 X25.399 Y32.656 Z35.000 F400
G1 X25.020 Y32.063 Z35.000 F400
G1 X24.718 Y31.415 Z35.000 F400
G1 X24.501 Y30.724 Z35.000 F400
G1 X24.375 Y30.000 Z35.000 F400
G1 X24.346 Y29.256 Z35.000 F400
G1 X24.416 Y28.504 Z35.000 F400
G1 X24.587 Y27.758 Z35.000 F400
G1 X24.858 Y27.031 Z35.000 F400
G1 X25.227 Y26.338 Z35.000 F400
G1 X25.691 Y25.691 Z35.000 F400
G1 X26.243 Y25.104 Z35.000 F400
G1 X26.875 Y24.587 Z35.000 F400
G1 X27.578 Y24.154 Z35.000 F400
G1 X28.342 Y23.812 Z35.000 F400
G1 X29.154 Y23.571 Z35.000 F400
G1 X30.000 Y23.438 Z35.000 F400
G1 X30.867 Y23.416 Z35.000 F400
G1 X31.739 Y23.510 Z35.000 F400
G1 X32.601 Y23.721 Z35.000 F400
G1 X33.437 Y24.046 Z35.000 F400
G1 X34.233 Y24.484 Z35.000 F400
G1 X34.972 Y25.028 Z35.000 F400
G1 X35.640 Y25.672 Z35.000 F400
G1 X36.225 Y26.406 Z35.000 F400
G1 X36.713 Y27.220 Z35.000 F400
G1 X37.094 Y28.099 Z35.000 F400
G1 X37.358 Y29.031 Z35.000 F400
G1 X37.500 Y30.000 Z35.000 F400
G1 X37.513 Y30.989 Z35.000 F400
G1 X37.395 Y31.982 Z35.000 F400
G1 X37.146 Y32.960 Z35.000 F400
G1 X36.766 Y33.906 Z35.000 F400
G1 X36.260 Y34.804 Z35.000 F400
G1 X35.635 Y35.635 Z35.000 F400
G1 X34.899 Y36.384 Z35.000 F400
G1 X34.063 Y37.036 Z35.000 F400
G1 X33.139 Y37.579 Z35.000 F400
G1 X32.143 Y37.999 Z35.000 F400
G1 X31.091 Y38.288 Z35.000 F400
G1 X30.000 Y38.438 Z35.000 F400
G1 X28.888 Y38.443 Z35.000 F400
G1 X27.776 Y38.301 Z35.000 F400
G1 X26.681 Y38.012 Z35.000 F400
G1 X25.625 Y37.578 Z35.000 F400
G1 X24.626 Y37.004 Z35.000 F400
G1 X23.702 Y36.298 Z35.000 F400
G1 X22.872 Y35.469 Z35.000 F400
G1 X22.152 Y34.531 Z35.000 F400
G1 X21.555 Y33.498 Z35.000 F400
G1 X21.095 Y32.386 Z35.000 F400
G1 X20.783 Y31.213 Z35.000 F400
G1 X20.625 Y30.000 Z35.000 F400
G1 X20.628 Y28.766 Z35.000 F400
G1 X20.794 Y27.533 Z35.000 F400
G1 X21.122 Y26.323 Z35.000 F400
G1 X21.610 Y25.156 Z35.000 F400
G1 X22.252 Y24.055 Z35.000 F400
G1 X23.039 Y23.039 Z35.000 F400
G1 X23.960 Y22.128 Z35.000 F400
G1 X25.000 Y21.340 Z35.000 F400
G1 X26.143 Y20.689 Z35.000 F400
G1 X27.371 Y20.190 Z35.000 F400
G1 X28.664 Y19.853 Z35.000 F400
G1 X30.000 Y19.688 Z35.000 F400
G1 X31.356 Y19.698 Z35.000 F400
G1 X32.710 Y19.888 Z35.000 F400
G1 X34.036 Y20.256 Z35.000 F400
G1 X35.313 Y20.798 Z35.000 F400
G1 X36.516 Y21.509 Z35.000 F400
G1 X37.623 Y22.377 Z35.000 F400
G1 X38.615 Y23.389 Z35.000 F400
G1 X39.472 Y24.531 Z35.000 F400
G1 X40.177 Y25.785 Z35.000 F400
G1 X40.716 Y27.129 Z35.000 F400
G1 X41.076 Y28.542 Z35.000 F400
G1 X41.250 Y30.000 Z35.000 F400
G1 X41.231 Y31.479 Z35.000 F400
G1 X41.018 Y32.952 Z35.000 F400
G1 X40.610 Y34.395 Z35.000 F400
G1 X40.013 Y35.781 Z35.000 F400
G1 X39.235 Y37.086 Z35.000 F400
G1 X38.286 Y38.286 Z35.000 F400
G1 X37.181 Y39.359 Z35.000 F400
G1 X35.938 Y40.284 Z35.000 F400
G1 X34.574 Y41.043 Z35.000 F400
G1 X33.114 Y41.621 Z35.000 F400
G1 X31.581 Y42.006 Z35.000 F400
G1 X30.000 Y42.188 Z35.000 F400
G1 X28.399 Y42.161 Z35.000 F400
G1 X26.805 Y41.923 Z35.000 F400
G1 X25.246 Y41.476 Z35.000 F400
G1 X23.750 Y40.825 Z35.000 F400
G1 X22.343 Y39.979 Z35.000 F400
G1 X21.051 Y38.949 Z35.000 F400
G1 X19.897 Y37.752 Z35.000 F400
G1 X18.904 Y36.406 Z35.000 F400
G1 X18.091 Y34.933 Z35.000 F400
G1 X17.473 Y33.357 Z35.000 F400
G1 X17.065 Y31.703 Z35.000 F400
G1 X16.875 Y30.000 Z35.000 F400
G1 X16.910 Y28.277 Z35.000 F400
G1 X17.171 Y26.563 Z35.000 F400
G1 X17.658 Y24.888 Z35.000 F400
G1 X18.363 Y23.281 Z35.000 F400
G1 X19.277 Y21.772 Z35.000 F400
G1 X20.388 Y20.388 Z35.000 F400
G1 X21.677 Y19.153 Z35.000 F400
G1 X23.125 Y18.092 Z35.000 F400
G1 X24.708 Y17.224 Z35.000 F400
G1 X26.401 Y16.568 Z35.000 F400
G1 X28.175 Y16.135 Z35.000 F400
G1 X30.000 Y15.938 Z35.000 F400
G1 X31.846 Y15.980 Z35.000 F400
G1 X33.680 Y16.266 Z35.000 F400
G1 X35.471 Y16.791 Z35.000 F400
G1 X37.188 Y17.551 Z35.000 F400
G1 X38.799 Y18.534 Z35.000 F400
G1 X40.275 Y19.725 Z35.000 F400
G1 X41.590 Y21.106 Z35.000 F400
G1 X42.720 Y22.656 Z35.000 F400
G1 X43.642 Y24.349 Z35.000 F400
G1 X44.338 Y26.158 Z35.000 F400
G1 X44.794 Y28.052 Z35.000 F400
G1 X45.000 Y30.000 Z35.000 F400
G0 Z70.000
(star center=(-280,-280) points=5 R=150/60 Z250)
G0 Z70.000
G0 X-28.000 Y-13.000
G1 Z25.000 F400
G1 X-31.527 Y-23.146 Z25.000 F400
G1 X-42.266 Y-23.365 Z25.000 F400
G1 X-33.706 Y-29.854 Z25.000 F400
G1 X-36.817 Y-40.135 Z25.000 F400
G1 X-28.000 Y-34.000 Z25.000 F400
G1 X-19.183 Y-40.135 Z25.000 F400
G1 X-22.294 Y-29.854 Z25.000 F400
G1 X-13.734 Y-23.365 Z25.000 F400
G1 X-24.473 Y-23.146 Z25.000 F400
G1 X-28.000 Y-13.000 Z25.000 F400
G0 Z70.000
G0 X0.000 Y0.000
%
