%
(autocam complex demo - tool: hemispheric_mill_3, stock 100x100x50mm)
(coordinate in unita-voxel come square_600; Z piu basso = piu profondo; Z700 = sicura)
G0 Z700.0
G0 X0 Y0
(Feature 1: griglia 3x3 di fori, profondita 250/150/50)
G0 Z700.0
G0 X-400.0 Y150.0
G1 Z250.0 F400
G0 Z700.0
G0 X-275.0 Y150.0
G1 Z250.0 F400
G0 Z700.0
G0 X-150.0 Y150.0
G1 Z250.0 F400
G0 Z700.0
G0 X-400.0 Y275.0
G1 Z150.0 F400
G0 Z700.0
G0 X-275.0 Y275.0
G1 Z150.0 F400
G0 Z700.0
G0 X-150.0 Y275.0
G1 Z150.0 F400
G0 Z700.0
G0 X-400.0 Y400.0
G1 Z50.0 F400
G0 Z700.0
G0 X-275.0 Y400.0
G1 Z50.0 F400
G0 Z700.0
G0 X-150.0 Y400.0
G1 Z50.0 F400
G0 Z700.0
(Feature 2: tasca rettangolare a raster, Z300)
G0 Z700.0
G0 X100.0 Y-420.0
G1 Z300.0 F400
G1 X420.0 Y-420.0 Z300.0 F400
G1 X420.0 Y-395.0 Z300.0 F400
G1 X100.0 Y-395.0 Z300.0 F400
G1 X100.0 Y-370.0 Z300.0 F400
G1 X420.0 Y-370.0 Z300.0 F400
G1 X420.0 Y-345.0 Z300.0 F400
G1 X100.0 Y-345.0 Z300.0 F400
G1 X100.0 Y-320.0 Z300.0 F400
G1 X420.0 Y-320.0 Z300.0 F400
G1 X420.0 Y-295.0 Z300.0 F400
G1 X100.0 Y-295.0 Z300.0 F400
G1 X100.0 Y-270.0 Z300.0 F400
G1 X420.0 Y-270.0 Z300.0 F400
G1 X420.0 Y-245.0 Z300.0 F400
G1 X100.0 Y-245.0 Z300.0 F400
G1 X100.0 Y-220.0 Z300.0 F400
G1 X420.0 Y-220.0 Z300.0 F400
G1 X420.0 Y-195.0 Z300.0 F400
G1 X100.0 Y-195.0 Z300.0 F400
G1 X100.0 Y-170.0 Z300.0 F400
G1 X420.0 Y-170.0 Z300.0 F400
G1 X420.0 Y-145.0 Z300.0 F400
G1 X100.0 Y-145.0 Z300.0 F400
G1 X100.0 Y-120.0 Z300.0 F400
G1 X420.0 Y-120.0 Z300.0 F400
G0 Z700.0
(Feature 3: spirale di Archimede, Z350)
G0 Z700.0
G0 X300.0 Y300.0
G1 Z350.0 F400
G1 X300.8 Y300.1 Z350.0 F400
G1 X301.5 Y300.4 Z350.0 F400
G1 X302.2 Y300.9 Z350.0 F400
G1 X302.7 Y301.6 Z350.0 F400
G1 X303.1 Y302.4 Z350.0 F400
G1 X303.3 Y303.3 Z350.0 F400
G1 X303.3 Y304.3 Z350.0 F400
G1 X303.1 Y305.4 Z350.0 F400
G1 X302.7 Y306.5 Z350.0 F400
G1 X302.0 Y307.5 Z350.0 F400
G1 X301.1 Y308.5 Z350.0 F400
G1 X300.0 Y309.4 Z350.0 F400
G1 X298.7 Y310.1 Z350.0 F400
G1 X297.2 Y310.6 Z350.0 F400
G1 X295.5 Y310.8 Z350.0 F400
G1 X293.8 Y310.8 Z350.0 F400
G1 X291.9 Y310.5 Z350.0 F400
G1 X290.1 Y309.9 Z350.0 F400
G1 X288.2 Y309.0 Z350.0 F400
G1 X286.5 Y307.8 Z350.0 F400
G1 X284.8 Y306.3 Z350.0 F400
G1 X283.4 Y304.4 Z350.0 F400
G1 X282.2 Y302.3 Z350.0 F400
G1 X281.2 Y300.0 Z350.0 F400
G1 X280.6 Y297.5 Z350.0 F400
G1 X280.4 Y294.7 Z350.0 F400
G1 X280.5 Y291.9 Z350.0 F400
G1 X281.1 Y289.1 Z350.0 F400
G1 X282.0 Y286.2 Z350.0 F400
G1 X283.4 Y283.4 Z350.0 F400
G1 X285.3 Y280.8 Z350.0 F400
G1 X287.5 Y278.3 Z350.0 F400
G1 X290.1 Y276.2 Z350.0 F400
G1 X293.1 Y274.3 Z350.0 F400
G1 X296.4 Y272.9 Z350.0 F400
G1 X300.0 Y271.9 Z350.0 F400
G1 X303.8 Y271.3 Z350.0 F400
G1 X307.7 Y271.3 Z350.0 F400
G1 X311.7 Y271.9 Z350.0 F400
G1 X315.6 Y272.9 Z350.0 F400
G1 X319.5 Y274.6 Z350.0 F400
G1 X323.2 Y276.8 Z350.0 F400
G1 X326.7 Y279.5 Z350.0 F400
G1 X329.8 Y282.8 Z350.0 F400
G1 X332.5 Y286.5 Z350.0 F400
G1 X334.7 Y290.7 Z350.0 F400
G1 X336.4 Y295.2 Z350.0 F400
G1 X337.5 Y300.0 Z350.0 F400
G1 X338.0 Y305.0 Z350.0 F400
G1 X337.7 Y310.1 Z350.0 F400
G1 X336.8 Y315.2 Z350.0 F400
G1 X335.2 Y320.3 Z350.0 F400
G1 X332.8 Y325.2 Z350.0 F400
G1 X329.8 Y329.8 Z350.0 F400
G1 X326.2 Y334.1 Z350.0 F400
G1 X321.9 Y337.9 Z350.0 F400
G1 X317.0 Y341.1 Z350.0 F400
G1 X311.7 Y343.8 Z350.0 F400
G1 X306.0 Y345.7 Z350.0 F400
G1 X300.0 Y346.9 Z350.0 F400
G1 X293.8 Y347.2 Z350.0 F400
G1 X287.5 Y346.8 Z350.0 F400
G1 X281.2 Y345.5 Z350.0 F400
G1 X275.0 Y343.3 Z350.0 F400
G1 X269.1 Y340.3 Z350.0 F400
G1 X263.5 Y336.5 Z350.0 F400
G1 X258.5 Y331.9 Z350.0 F400
G1 X254.0 Y326.6 Z350.0 F400
G1 X250.2 Y320.6 Z350.0 F400
G1 X247.2 Y314.2 Z350.0 F400
G1 X245.0 Y307.2 Z350.0 F400
G1 X243.8 Y300.0 Z350.0 F400
G1 X243.5 Y292.6 Z350.0 F400
G1 X244.2 Y285.0 Z350.0 F400
G1 X245.9 Y277.6 Z350.0 F400
G1 X248.6 Y270.3 Z350.0 F400
G1 X252.3 Y263.4 Z350.0 F400
G1 X256.9 Y256.9 Z350.0 F400
G1 X262.4 Y251.0 Z350.0 F400
G1 X268.8 Y245.9 Z350.0 F400
G1 X275.8 Y241.5 Z350.0 F400
G1 X283.4 Y238.1 Z350.0 F400
G1 X291.5 Y235.7 Z350.0 F400
G1 X300.0 Y234.4 Z350.0 F400
G1 X308.7 Y234.2 Z350.0 F400
G1 X317.4 Y235.1 Z350.0 F400
G1 X326.0 Y237.2 Z350.0 F400
G1 X334.4 Y240.5 Z350.0 F400
G1 X342.3 Y244.8 Z350.0 F400
G1 X349.7 Y250.3 Z350.0 F400
G1 X356.4 Y256.7 Z350.0 F400
G1 X362.2 Y264.1 Z350.0 F400
G1 X367.1 Y272.2 Z350.0 F400
G1 X370.9 Y281.0 Z350.0 F400
G1 X373.6 Y290.3 Z350.0 F400
G1 X375.0 Y300.0 Z350.0 F400
G1 X375.1 Y309.9 Z350.0 F400
G1 X374.0 Y319.8 Z350.0 F400
G1 X371.5 Y329.6 Z350.0 F400
G1 X367.7 Y339.1 Z350.0 F400
G1 X362.6 Y348.0 Z350.0 F400
G1 X356.3 Y356.3 Z350.0 F400
G1 X349.0 Y363.8 Z350.0 F400
G1 X340.6 Y370.4 Z350.0 F400
G1 X331.4 Y375.8 Z350.0 F400
G1 X321.4 Y380.0 Z350.0 F400
G1 X310.9 Y382.9 Z350.0 F400
G1 X300.0 Y384.4 Z350.0 F400
G1 X288.9 Y384.4 Z350.0 F400
G1 X277.8 Y383.0 Z350.0 F400
G1 X266.8 Y380.1 Z350.0 F400
G1 X256.2 Y375.8 Z350.0 F400
G1 X246.3 Y370.0 Z350.0 F400
G1 X237.0 Y363.0 Z350.0 F400
G1 X228.7 Y354.7 Z350.0 F400
G1 X221.5 Y345.3 Z350.0 F400
G1 X215.6 Y335.0 Z350.0 F400
G1 X211.0 Y323.9 Z350.0 F400
G1 X207.8 Y312.1 Z350.0 F400
G1 X206.2 Y300.0 Z350.0 F400
G1 X206.3 Y287.7 Z350.0 F400
G1 X207.9 Y275.3 Z350.0 F400
G1 X211.2 Y263.2 Z350.0 F400
G1 X216.1 Y251.6 Z350.0 F400
G1 X222.5 Y240.6 Z350.0 F400
G1 X230.4 Y230.4 Z350.0 F400
G1 X239.6 Y221.3 Z350.0 F400
G1 X250.0 Y213.4 Z350.0 F400
G1 X261.4 Y206.9 Z350.0 F400
G1 X273.7 Y201.9 Z350.0 F400
G1 X286.6 Y198.5 Z350.0 F400
G1 X300.0 Y196.9 Z350.0 F400
G1 X313.6 Y197.0 Z350.0 F400
G1 X327.1 Y198.9 Z350.0 F400
G1 X340.4 Y202.6 Z350.0 F400
G1 X353.1 Y208.0 Z350.0 F400
G1 X365.2 Y215.1 Z350.0 F400
G1 X376.2 Y223.8 Z350.0 F400
G1 X386.2 Y233.9 Z350.0 F400
G1 X394.7 Y245.3 Z350.0 F400
G1 X401.8 Y257.8 Z350.0 F400
G1 X407.2 Y271.3 Z350.0 F400
G1 X410.8 Y285.4 Z350.0 F400
G1 X412.5 Y300.0 Z350.0 F400
G1 X412.3 Y314.8 Z350.0 F400
G1 X410.2 Y329.5 Z350.0 F400
G1 X406.1 Y343.9 Z350.0 F400
G1 X400.1 Y357.8 Z350.0 F400
G1 X392.4 Y370.9 Z350.0 F400
G1 X382.9 Y382.9 Z350.0 F400
G1 X371.8 Y393.6 Z350.0 F400
G1 X359.4 Y402.8 Z350.0 F400
G1 X345.7 Y410.4 Z350.0 F400
G1 X331.1 Y416.2 Z350.0 F400
G1 X315.8 Y420.1 Z350.0 F400
G1 X300.0 Y421.9 Z350.0 F400
G1 X284.0 Y421.6 Z350.0 F400
G1 X268.1 Y419.2 Z350.0 F400
G1 X252.5 Y414.8 Z350.0 F400
G1 X237.5 Y408.3 Z350.0 F400
G1 X223.4 Y399.8 Z350.0 F400
G1 X210.5 Y389.5 Z350.0 F400
G1 X199.0 Y377.5 Z350.0 F400
G1 X189.0 Y364.1 Z350.0 F400
G1 X180.9 Y349.3 Z350.0 F400
G1 X174.7 Y333.6 Z350.0 F400
G1 X170.6 Y317.0 Z350.0 F400
G1 X168.8 Y300.0 Z350.0 F400
G1 X169.1 Y282.8 Z350.0 F400
G1 X171.7 Y265.6 Z350.0 F400
G1 X176.6 Y248.9 Z350.0 F400
G1 X183.6 Y232.8 Z350.0 F400
G1 X192.8 Y217.7 Z350.0 F400
G1 X203.9 Y203.9 Z350.0 F400
G1 X216.8 Y191.5 Z350.0 F400
G1 X231.2 Y180.9 Z350.0 F400
G1 X247.1 Y172.2 Z350.0 F400
G1 X264.0 Y165.7 Z350.0 F400
G1 X281.7 Y161.4 Z350.0 F400
G1 X300.0 Y159.4 Z350.0 F400
G1 X318.5 Y159.8 Z350.0 F400
G1 X336.8 Y162.7 Z350.0 F400
G1 X354.7 Y167.9 Z350.0 F400
G1 X371.9 Y175.5 Z350.0 F400
G1 X388.0 Y185.3 Z350.0 F400
G1 X402.8 Y197.2 Z350.0 F400
G1 X415.9 Y211.1 Z350.0 F400
G1 X427.2 Y226.6 Z350.0 F400
G1 X436.4 Y243.5 Z350.0 F400
G1 X443.4 Y261.6 Z350.0 F400
G1 X447.9 Y280.5 Z350.0 F400
G1 X450.0 Y300.0 Z350.0 F400
G0 Z700.0
(Feature 4: stella a 5 punte freeform, Z250)
G0 Z700.0
G0 X-280.0 Y-130.0
G1 Z250.0 F400
G1 X-315.3 Y-231.5 Z250.0 F400
G1 X-422.7 Y-233.6 Z250.0 F400
G1 X-337.1 Y-298.5 Z250.0 F400
G1 X-368.2 Y-401.4 Z250.0 F400
G1 X-280.0 Y-340.0 Z250.0 F400
G1 X-191.8 Y-401.4 Z250.0 F400
G1 X-222.9 Y-298.5 Z250.0 F400
G1 X-137.3 Y-233.6 Z250.0 F400
G1 X-244.7 Y-231.5 Z250.0 F400
G1 X-280.0 Y-130.0 Z250.0 F400
G0 Z700.0
G0 X0 Y0
%
